{"spkid": "50620890", "covariance": {"epoch": "2457966.5", "data": [["1.706700378691349E-14", "-1.2361903266425E-14", "-3.170748008545583E-12", "-3.764421586648196E-13", "-1.568583806517067E-12", "1.216749305242454E-12"], ["-1.2361903266425E-14", "8.954013208182263E-15", "2.296048841671483E-12", "2.726010068855733E-13", "1.135781935796786E-12", "-8.813774281964692E-13"], ["-3.170748008545583E-12", "2.296048841671483E-12", "6.480758093339019E-10", "8.453393723791999E-11", "3.187731444159729E-10", "-2.229665883221111E-10"], ["-3.764421586648196E-13", "2.726010068855733E-13", "8.453393723791999E-11", "1.767044358682485E-10", "-1.224593477969295E-10", "-1.022961504819159E-10"], ["-1.568583806517067E-12", "1.135781935796786E-12", "3.187731444159729E-10", "-1.224593477969295E-10", "3.209827801556702E-10", "-3.433804311563531E-11"], ["1.216749305242454E-12", "-8.813774281964692E-13", "-2.229665883221111E-10", "-1.022961504819159E-10", "-3.433804311563531E-11", "1.459677176646282E-10"]], "elements": [{"sigma": 1.30640743211731e-07, "name": "e", "title": "eccentricity", "value": ".432937367556593", "units": null, "label": "e"}, {"label": "q", "name": "q", "sigma": 9.46256477292613e-08, "value": ".4099894006714018", "title": "perihelion distance", "units": "au"}, {"units": "TDB", "value": "2457953.085626855323", "title": "time of perihelion passage", "name": "tp", "sigma": 2.54573331151144e-05, "label": "tp"}, {"units": "deg", "title": "longitude of the ascending node", "value": "281.0840143038409", "sigma": 1.32930220743159e-05, "name": "om", "label": "node"}, {"label": "peri", "sigma": 1.79159923017306e-05, "name": "w", "units": "deg", "title": "argument of perihelion", "value": "337.0948884835706"}, {"label": "i", "sigma": 1.20817100472006e-05, "name": "i", "title": "inclination", "value": "6.70807372767666", "units": "deg"}], "labels": ["e", "q", "tp", "node", "peri", "i"]}, "elements": [{"units": null, "value": ".432611674003314", "title": "eccentricity", "name": "e", "sigma": "1.3077E-7", "label": "e"}, {"label": "a", "units": "au", "title": "semi-major axis", "value": ".7231282355495956", "sigma": "5.9233E-10", "name": "a"}, {"name": "q", "sigma": "9.4732E-8", "value": ".4102945190494223", "title": "perihelion distance", "units": "au", "label": "q"}, {"label": "i", "value": "6.727770640871189", "title": "inclination; angle with respect to x-y ecliptic plane", "units": "deg", "name": "i", "sigma": "1.2055E-5"}, {"label": "node", "name": "om", "sigma": "1.3187E-5", "units": "deg", "title": "longitude of the ascending node", "value": "281.0067636479111"}, {"label": "peri", "title": "argument of perihelion", "value": "337.1127749707431", "units": "deg", "sigma": "1.7838E-5", "name": "w"}, {"sigma": "4.3612E-5", "name": "ma", "units": "deg", "title": "mean anomaly", "value": "165.5379144683987", "label": "M"}, {"name": "tp", "sigma": "2.7157E-5", "units": "TDB", "title": "time of perihelion passage", "value": "2461097.219963014414", "label": "tp"}, {"label": "period", "sigma": "2.7597E-7", "name": "per", "units": "d", "title": "sidereal orbital period", "value": "224.606027170342"}, {"label": "n", "title": "mean motion", "value": "1.602806498718642", "units": "deg/d", "sigma": "1.9694E-9", "name": "n"}, {"name": "ad", "sigma": "8.4858E-10", "value": "1.035961952049769", "title": "aphelion distance", "units": "au", "label": "Q"}], "epoch": "2461200.5"}